[{"OBJECT_NAME":"JILIN-01 KUANFU 02B 6","OBJECT_ID":"2024-169F","EPOCH":"2026-03-09T21:43:38.712288","MEAN_MOTION":15.09238946,"ECCENTRICITY":0.00150747,"INCLINATION":97.5549,"RA_OF_ASC_NODE":159.9459,"ARG_OF_PERICENTER":324.4254,"MEAN_ANOMALY":35.5968,"EPHEMERIS_TYPE":0,"CLASSIFICATION_TYPE":"U","NORAD_CAT_ID":61194,"ELEMENT_SET_NO":999,"REV_AT_EPOCH":8086,"BSTAR":0.00036442477,"MEAN_MOTION_DOT":5.751e-5,"MEAN_MOTION_DDOT":0},{"OBJECT_NAME":"STARLINK-34922","OBJECT_ID":"2025-184A","EPOCH":"2026-03-09T16:41:02.223168","MEAN_MOTION":15.0565116,"ECCENTRICITY":9.631e-5,"INCLINATION":97.6036,"RA_OF_ASC_NODE":122.6941,"ARG_OF_PERICENTER":216.5585,"MEAN_ANOMALY":143.5576,"EPHEMERIS_TYPE":0,"CLASSIFICATION_TYPE":"U","NORAD_CAT_ID":65273,"ELEMENT_SET_NO":999,"REV_AT_EPOCH":3130,"BSTAR":0.00042586516,"MEAN_MOTION_DOT":6.089e-5,"MEAN_MOTION_DDOT":0}]
